GLOBALSTAR M045         
1 25676U 99019A   25100.59160700 -.00000026  00000+0  59319-3 0  9998
2 25676  51.9945 137.9313 0000531 104.4167  34.4888 12.27060651185098
GLOBALSTAR M019         
1 25677U 99019B   25100.75427203 -.00000035  00000+0  57213-3 0  9992
2 25677  51.9877 263.0878 0001642 153.0113 309.4817 12.13877562176959
GLOBALSTAR M044         
1 25678U 99019C   25100.58760074 -.00000086  00000+0 -27567-4 0  9997
2 25678  51.9959 206.4552 0005844 266.6713 194.1785 11.90248386163270
GLOBALSTAR M042         
1 25679U 99019D   25100.77001981 -.00000112  00000+0 -18881-3 0  9992
2 25679  52.0005 241.2739 0003494 151.7269 355.5174 12.22081613177014
GLOBALSTAR M025         
1 25770U 99031A   25100.88597627 -.00000066  00000+0  58822-4 0  9994
2 25770  51.9834 315.1819 0002082  56.3811 315.1203 11.22558252474156
GLOBALSTAR M049         
1 25771U 99031B   25100.84764622 -.00000041  00000+0  84771-3 0  9996
2 25771  51.9909 346.6486 0002045 255.5819 104.4750 11.12113322109930
GLOBALSTAR M047         
1 25772U 99031C   25100.41742809 -.00000059  00000+0  30840-3 0  9990
2 25772  51.9873 351.0678 0016608 144.4388 215.7527 11.31927116463432
